IRIDIUM 150             
1 43257U 18030J   25302.63295668  .00000418  00000+0  14227-3 0  9991
2 43257  86.4009  26.8384 0001913  94.6026 265.5388 14.34218422397111
IRIDIUM 143             
1 43258U 18030K   25302.68369665  .00000315  00000+0  10532-3 0  9997
2 43258  86.4014  26.9008 0001778  96.4904 263.6495 14.34218429397054
IRIDIUM 161             
1 43478U 18047C   25302.92130402  .00000455  00000+0  12929-3 0  9998
2 43478  86.4549 184.6710 0002275  84.0014 276.1447 14.43276604391926
IRIDIUM 152             
1 43479U 18047D   25302.93548898  .00000262  00000+0  86332-4 0  9998
2 43479  86.4023 184.5256 0002262  82.2094 277.9359 14.34218093389489
IRIDIUM 147             
1 43480U 18047E   25302.94183164  .00000092  00000+0  25924-4 0  9993
2 43480  86.4025 184.5243 0002142  86.0608 274.0833 14.34218185389486
IRIDIUM 110             
1 43481U 18047F   25302.94817918  .00000336  00000+0  11296-3 0  9992
2 43481  86.4027 184.6072 0002595  85.0649 275.0843 14.34218048389475
IRIDIUM 162             
1 43482U 18047G   25302.91498654  .00000457  00000+0  12983-3 0  9990
2 43482  86.4548 184.5675 0002301  77.0752 283.0706 14.43281122391915
IRIDIUM 160             
1 43569U 18061A   25302.33586243  .00000156  00000+0  48766-4 0  9995
2 43569  86.3990 153.3008 0002272  91.1911 268.9545 14.34217977380284
